start=new Date('2022-04-01T00:00:00.000Z').valueOf();
sats=[{"GP_ID":"200149305","OBJECT_NAME":"STARLINK-3703","CLASSIFICATION_TYPE":"U","OBJECT_TYPE":"PAYLOAD","APOAPSIS":"350.275","MEAN_MOTION":"15.73215008","MEAN_MOTION_DOT":"0.00042481","TIME_SYSTEM":"UTC","REF_FRAME":"TEME","TLE_LINE2":"2 52101  53.2163  82.7757 0000829  55.0520 231.1753 15.73215008  2694","TLE_LINE1":"1 52101U 22029P   22090.58334491  .00042481  00000-0  30537-3 0  9994","DECAY_DATE":null,"CENTER_NAME":"EARTH","LAUNCH_DATE":"2022-03-19","MEAN_ELEMENT_THEORY":"SGP4","PERIOD":"91.532","NORAD_CAT_ID":"52101","ARG_OF_PERICENTER":"55.0520","RA_OF_ASC_NODE":"82.7757","FILE":"3381849","ELEMENT_SET_NO":"999","OBJECT_ID":"2022-029P","BSTAR":"0.00030537000000","EPHEMERIS_TYPE":"0","PERIAPSIS":"349.160","ECCENTRICITY":"0.00008290","INCLINATION":"53.2163","SEMIMAJOR_AXIS":"6727.852","COUNTRY_CODE":"US","RCS_SIZE":"LARGE","EPOCH":"2022-03-31T14:00:01.000224","MEAN_MOTION_DDOT":"0.0000000000000","REV_AT_EPOCH":"269","SITE":"AFETR","MEAN_ANOMALY":"231.1753"},{"TLE_LINE1":"1 52102U 22029Q   22090.58334491 -.00040434  00000-0 -28463-3 0  9998","DECAY_DATE":null,"CENTER_NAME":"EARTH","LAUNCH_DATE":"2022-03-19","MEAN_ELEMENT_THEORY":"SGP4","PERIOD":"91.531","GP_ID":"200149422","OBJECT_NAME":"STARLINK-3709","CLASSIFICATION_TYPE":"U","OBJECT_TYPE":"PAYLOAD","APOAPSIS":"350.399","MEAN_MOTION":"15.73235677","MEAN_MOTION_DOT":"-0.00040434","REF_FRAME":"TEME","TIME_SYSTEM":"UTC","TLE_LINE2":"2 52102  53.2163  82.7805 0001101  55.4805 228.5683 15.73235677  2734","RCS_SIZE":"LARGE","EPOCH":"2022-03-31T14:00:01.000224","MEAN_MOTION_DDOT":"0.0000000000000","REV_AT_EPOCH":"273","SITE":"AFETR","MEAN_ANOMALY":"228.5683","NORAD_CAT_ID":"52102","ARG_OF_PERICENTER":"55.4805","FILE":"3381849","RA_OF_ASC_NODE":"82.7805","ELEMENT_SET_NO":"999","OBJECT_ID":"2022-029Q","BSTAR":"-0.00028463000000","PERIAPSIS":"348.918","EPHEMERIS_TYPE":"0","ECCENTRICITY":"0.00011010","INCLINATION":"53.2163","COUNTRY_CODE":"US","SEMIMAJOR_AXIS":"6727.793"},{"OBJECT_NAME":"STARLINK-3705","GP_ID":"200149216","APOAPSIS":"350.450","OBJECT_TYPE":"PAYLOAD","CLASSIFICATION_TYPE":"U","MEAN_MOTION":"15.73195229","TLE_LINE2":"2 52103  53.2163  82.7731 0001005  63.1792 224.2964 15.73195229  2695","TIME_SYSTEM":"UTC","MEAN_MOTION_DOT":"0.00019924","REF_FRAME":"TEME","DECAY_DATE":null,"TLE_LINE1":"1 52103U 22029R   22090.58334491  .00019924  00000-0  14607-3 0  9992","CENTER_NAME":"EARTH","PERIOD":"91.533","MEAN_ELEMENT_THEORY":"SGP4","LAUNCH_DATE":"2022-03-19","ARG_OF_PERICENTER":"63.1792","NORAD_CAT_ID":"52103","OBJECT_ID":"2022-029R","ELEMENT_SET_NO":"999","RA_OF_ASC_NODE":"82.7731","FILE":"3381849","ECCENTRICITY":"0.00010050","EPHEMERIS_TYPE":"0","PERIAPSIS":"349.098","BSTAR":"0.00014607000000","COUNTRY_CODE":"US","SEMIMAJOR_AXIS":"6727.909","INCLINATION":"53.2163","MEAN_MOTION_DDOT":"0.0000000000000","RCS_SIZE":"LARGE","EPOCH":"2022-03-31T14:00:01.000224","REV_AT_EPOCH":"269","MEAN_ANOMALY":"224.2964","SITE":"AFETR"},{"INCLINATION":"53.2158","SEMIMAJOR_AXIS":"6681.587","COUNTRY_CODE":"US","BSTAR":"0.00082666000000","EPHEMERIS_TYPE":"0","PERIAPSIS":"298.350","ECCENTRICITY":"0.00076360","RA_OF_ASC_NODE":"80.7293","FILE":"3381995","ELEMENT_SET_NO":"999","OBJECT_ID":"2022-029S","NORAD_CAT_ID":"52104","ARG_OF_PERICENTER":"313.8891","SITE":"AFETR","MEAN_ANOMALY":"343.0195","REV_AT_EPOCH":"325","MEAN_MOTION_DDOT":"0.0000329550000","RCS_SIZE":"LARGE","EPOCH":"2022-03-31T20:00:01.000224","MEAN_MOTION_DOT":"0.00245488","REF_FRAME":"TEME","TIME_SYSTEM":"UTC","TLE_LINE2":"2 52104  53.2158  80.7293 0007636 313.8891 343.0195 15.89583386  3253","MEAN_MOTION":"15.89583386","CLASSIFICATION_TYPE":"U","OBJECT_TYPE":"PAYLOAD","APOAPSIS":"308.554","GP_ID":"200152315","OBJECT_NAME":"STARLINK-3693","LAUNCH_DATE":"2022-03-19","MEAN_ELEMENT_THEORY":"SGP4","PERIOD":"90.590","CENTER_NAME":"EARTH","TLE_LINE1":"1 52104U 22029S   22090.83334491  .00245488  32955-4  82666-3 0  9995","DECAY_DATE":null},{"APOAPSIS":"350.406","CLASSIFICATION_TYPE":"U","OBJECT_TYPE":"PAYLOAD","OBJECT_NAME":"STARLINK-3706","GP_ID":"200149617","TIME_SYSTEM":"UTC","MEAN_MOTION_DOT":"0.00016356","REF_FRAME":"TEME","TLE_LINE2":"2 52105  53.2163  82.7709 0001180  53.4017 234.9795 15.73251799  2705","MEAN_MOTION":"15.73251799","DECAY_DATE":null,"TLE_LINE1":"1 52105U 22029T   22090.58334491  .00016356  00000-0  12046-3 0  9995","PERIOD":"91.530","LAUNCH_DATE":"2022-03-19","MEAN_ELEMENT_THEORY":"SGP4","CENTER_NAME":"EARTH","ELEMENT_SET_NO":"999","OBJECT_ID":"2022-029T","RA_OF_ASC_NODE":"82.7709","FILE":"3381849","ARG_OF_PERICENTER":"53.4017","NORAD_CAT_ID":"52105","INCLINATION":"53.2163","COUNTRY_CODE":"US","SEMIMAJOR_AXIS":"6727.747","ECCENTRICITY":"0.00011800","BSTAR":"0.00012046000000","PERIAPSIS":"348.819","EPHEMERIS_TYPE":"0","REV_AT_EPOCH":"270","EPOCH":"2022-03-31T14:00:01.000224","RCS_SIZE":"LARGE","MEAN_MOTION_DDOT":"0.0000000000000","SITE":"AFETR","MEAN_ANOMALY":"234.9795"},{"PERIAPSIS":"349.174","EPHEMERIS_TYPE":"0","BSTAR":"0.00027351000000","ECCENTRICITY":"0.00008460","COUNTRY_CODE":"US","SEMIMAJOR_AXIS":"6727.878","INCLINATION":"53.2164","NORAD_CAT_ID":"52106","ARG_OF_PERICENTER":"48.4696","RA_OF_ASC_NODE":"82.7745","FILE":"3381849","OBJECT_ID":"2022-029U","ELEMENT_SET_NO":"999","MEAN_ANOMALY":"238.3884","SITE":"AFETR","RCS_SIZE":"LARGE","EPOCH":"2022-03-31T14:00:01.000224","MEAN_MOTION_DDOT":"0.0000000000000","REV_AT_EPOCH":"270","MEAN_MOTION":"15.73205860","TLE_LINE2":"2 52106  53.2164  82.7745 0000846  48.4696 238.3884 15.73205860  2707","REF_FRAME":"TEME","MEAN_MOTION_DOT":"0.00037948","TIME_SYSTEM":"UTC","GP_ID":"200149112","OBJECT_NAME":"STARLINK-3670","OBJECT_TYPE":"PAYLOAD","CLASSIFICATION_TYPE":"U","APOAPSIS":"350.313","CENTER_NAME":"EARTH","MEAN_ELEMENT_THEORY":"SGP4","LAUNCH_DATE":"2022-03-19","PERIOD":"91.533","TLE_LINE1":"1 52106U 22029U   22090.58334491  .00037948  00000-0  27351-3 0  9991","DECAY_DATE":null},{"DECAY_DATE":null,"TLE_LINE1":"1 52107U 22029V   22090.83334491  .00126856  00000-0  89609-3 0  9991","CENTER_NAME":"EARTH","PERIOD":"91.535","MEAN_ELEMENT_THEORY":"SGP4","LAUNCH_DATE":"2022-03-19","OBJECT_NAME":"STARLINK-3658","GP_ID":"200152346","APOAPSIS":"350.727","OBJECT_TYPE":"PAYLOAD","CLASSIFICATION_TYPE":"U","MEAN_MOTION":"15.73163325","TLE_LINE2":"2 52107  53.2166  81.5291 0001282  71.0805 195.4305 15.73163325  3242","MEAN_MOTION_DOT":"0.00126856","REF_FRAME":"TEME","TIME_SYSTEM":"UTC","RCS_SIZE":"LARGE","MEAN_MOTION_DDOT":"0.0000000000000","EPOCH":"2022-03-31T20:00:01.000224","REV_AT_EPOCH":"324","MEAN_ANOMALY":"195.4305","SITE":"AFETR","ARG_OF_PERICENTER":"71.0805","NORAD_CAT_ID":"52107","OBJECT_ID":"2022-029V","ELEMENT_SET_NO":"999","FILE":"3382012","RA_OF_ASC_NODE":"81.5291","ECCENTRICITY":"0.00012820","PERIAPSIS":"349.002","EPHEMERIS_TYPE":"0","BSTAR":"0.00089609000000","COUNTRY_CODE":"US","SEMIMAJOR_AXIS":"6728.000","INCLINATION":"53.2166"},{"MEAN_MOTION_DOT":"0.00043418","REF_FRAME":"TEME","TIME_SYSTEM":"UTC","TLE_LINE2":"2 52108  53.2164  82.7720 0001178  59.1445 228.8841 15.73194360  2699","MEAN_MOTION":"15.73194360","CLASSIFICATION_TYPE":"U","OBJECT_TYPE":"PAYLOAD","APOAPSIS":"350.569","GP_ID":"200149729","OBJECT_NAME":"STARLINK-3698","LAUNCH_DATE":"2022-03-19","MEAN_ELEMENT_THEORY":"SGP4","PERIOD":"91.534","CENTER_NAME":"EARTH","TLE_LINE1":"1 52108U 22029W   22090.58334491  .00043418  00000-0  31225-3 0  9997","DECAY_DATE":null,"INCLINATION":"53.2164","SEMIMAJOR_AXIS":"6727.911","COUNTRY_CODE":"US","BSTAR":"0.00031225000000","EPHEMERIS_TYPE":"0","PERIAPSIS":"348.984","ECCENTRICITY":"0.00011780","FILE":"3381849","RA_OF_ASC_NODE":"82.7720","ELEMENT_SET_NO":"999","OBJECT_ID":"2022-029W","NORAD_CAT_ID":"52108","ARG_OF_PERICENTER":"59.1445","SITE":"AFETR","MEAN_ANOMALY":"228.8841","REV_AT_EPOCH":"269","EPOCH":"2022-03-31T14:00:01.000224","RCS_SIZE":"LARGE","MEAN_MOTION_DDOT":"0.0000000000000"},{"EPOCH":"2022-04-01T00:27:06.112800","RCS_SIZE":"MEDIUM","MEAN_MOTION_DDOT":"0.0000124300000","REV_AT_EPOCH":"328","SITE":"AFETR","MEAN_ANOMALY":"261.3828","NORAD_CAT_ID":"52109","ARG_OF_PERICENTER":"211.5524","RA_OF_ASC_NODE":"79.3454","FILE":"3382310","ELEMENT_SET_NO":"999","OBJECT_ID":"2022-029X","BSTAR":"0.00276310000000","PERIAPSIS":"155.174","EPHEMERIS_TYPE":"0","ECCENTRICITY":"0.00015860","INCLINATION":"53.2322","SEMIMAJOR_AXIS":"6534.345","COUNTRY_CODE":"US","TLE_LINE1":"1 52109U 22029X   22091.01882075  .61742207  12430-4  27631-2 0  9991","DECAY_DATE":null,"CENTER_NAME":"EARTH","LAUNCH_DATE":"2022-03-19","MEAN_ELEMENT_THEORY":"SGP4","PERIOD":"87.612","GP_ID":"200160076","OBJECT_NAME":"STARLINK-3731","CLASSIFICATION_TYPE":"U","OBJECT_TYPE":"PAYLOAD","APOAPSIS":"157.246","MEAN_MOTION":"16.43613404","TIME_SYSTEM":"UTC","MEAN_MOTION_DOT":"0.61742207","REF_FRAME":"TEME","TLE_LINE2":"2 52109  53.2322  79.3454 0001586 211.5524 261.3828 16.43613404  3283"},{"RCS_SIZE":"LARGE","EPOCH":"2022-03-31T14:00:01.000224","MEAN_MOTION_DDOT":"0.0000000000000","REV_AT_EPOCH":"269","SITE":"AFETR","MEAN_ANOMALY":"228.5008","NORAD_CAT_ID":"52110","ARG_OF_PERICENTER":"60.5850","RA_OF_ASC_NODE":"82.7696","FILE":"3381849","ELEMENT_SET_NO":"999","OBJECT_ID":"2022-029Y","BSTAR":"-0.00026610000000","EPHEMERIS_TYPE":"0","PERIAPSIS":"348.783","ECCENTRICITY":"0.00011350","INCLINATION":"53.2164","SEMIMAJOR_AXIS":"6727.682","COUNTRY_CODE":"US","TLE_LINE1":"1 52110U 22029Y   22090.58334491 -.00037916  00000-0 -26610-3 0  9990","DECAY_DATE":null,"CENTER_NAME":"EARTH","LAUNCH_DATE":"2022-03-19","MEAN_ELEMENT_THEORY":"SGP4","PERIOD":"91.529","GP_ID":"200149423","OBJECT_NAME":"STARLINK-3687","CLASSIFICATION_TYPE":"U","OBJECT_TYPE":"PAYLOAD","APOAPSIS":"350.311","MEAN_MOTION":"15.73274788","MEAN_MOTION_DOT":"-0.00037916","TIME_SYSTEM":"UTC","REF_FRAME":"TEME","TLE_LINE2":"2 52110  53.2164  82.7696 0001135  60.5850 228.5008 15.73274788  2698"}];
